{"type": "FeatureCollection", "features": [ {"type": "Feature", "properties": {"norad_id": 38552, "name": "METEOSAT-10 (MSG-3)", "group": "weather", "lat": -2.7885727881876132, "lon": 20.477521807818235, "alt_km": 35783.250802088274, "timestamp": "2025-12-18T19:29:52.186936+00:00", "meta": {"OBJECT_NAME": "METEOSAT-10 (MSG-3)", "OBJECT_ID": "2012-035B", "EPOCH": "2025-12-18T01:18:41.683968", "MEAN_MOTION": 1.00276329, "ECCENTRICITY": 6.951e-05, "INCLINATION": 4.2406, "RA_OF_ASC_NODE": 61.7102, "ARG_OF_PERICENTER": 269.2855, "MEAN_ANOMALY": 135.8514, "EPHEMERIS_TYPE": 0, "CLASSIFICATION_TYPE": "U", "NORAD_CAT_ID": 38552, "ELEMENT_SET_NO": 999, "REV_AT_EPOCH": 4904, "BSTAR": 0, "MEAN_MOTION_DOT": 1.7e-07, "MEAN_MOTION_DDOT": 0}, "tle": {"line1": "1 38552U 12035B   25352.05464912  .00000017  00000+0  00000+0 0  9998", "line2": "2 38552   4.2406  61.7102 0000695 269.2855 135.8514  1.00276329 49049"}}, "geometry": {"type": "Point", "coordinates": [20.477521807818235, -2.7885727881876132]}}, {"type": "Feature", "properties": {"norad_id": 38771, "name": "METOP-B", "group": "weather", "lat": -4.653411082718903, "lon": -138.0444392195569, "alt_km": 822.7671961009437, "timestamp": "2025-12-18T19:29:52.186948+00:00", "meta": {"OBJECT_NAME": "METOP-B", "OBJECT_ID": "2012-049A", "EPOCH": "2025-12-18T05:07:01.391520", "MEAN_MOTION": 14.21410467, "ECCENTRICITY": 0.0003101, "INCLINATION": 98.6793, "RA_OF_ASC_NODE": 42.079, "ARG_OF_PERICENTER": 132.6422, "MEAN_ANOMALY": 227.5017, "EPHEMERIS_TYPE": 0, "CLASSIFICATION_TYPE": "U", "NORAD_CAT_ID": 38771, "ELEMENT_SET_NO": 999, "REV_AT_EPOCH": 68755, "BSTAR": 7.891607e-05, "MEAN_MOTION_DOT": 1.29e-06, "MEAN_MOTION_DDOT": 0}, "tle": {"line1": "1 38771U 12049A   25352.21321055  .00000129  00000+0  78916-4 0  9994", "line2": "2 38771  98.6793  42.0790 0003101 132.6422 227.5017 14.21410467687552"}}, "geometry": {"type": "Point", "coordinates": [-138.0444392195569, -4.653411082718903]}}, {"type": "Feature", "properties": {"norad_id": 39216, "name": "INSAT-3D", "group": "weather", "lat": 1.329100871259755, "lon": 149.57147313787374, "alt_km": 35788.20445595653, "timestamp": "2025-12-18T19:29:52.186960+00:00", "meta": {"OBJECT_NAME": "INSAT-3D", "OBJECT_ID": "2013-038B", "EPOCH": "2025-12-17T17:21:59.330304", "MEAN_MOTION": 1.00267779, "ECCENTRICITY": 0.00012009, "INCLINATION": 1.4572, "RA_OF_ASC_NODE": 84.9421, "ARG_OF_PERICENTER": 166.0293, "MEAN_ANOMALY": 225.6028, "EPHEMERIS_TYPE": 0, "CLASSIFICATION_TYPE": "U", "NORAD_CAT_ID": 39216, "ELEMENT_SET_NO": 999, "REV_AT_EPOCH": 4526, "BSTAR": 0, "MEAN_MOTION_DOT": -3.16e-06, "MEAN_MOTION_DDOT": 0}, "tle": {"line1": "1 39216U 13038B   25351.72360336 -.00000316  00000+0  00000+0 0  9991", "line2": "2 39216   1.4572  84.9421 0001200 166.0293 225.6028  1.00267779 45261"}}, "geometry": {"type": "Point", "coordinates": [149.57147313787374, 1.329100871259755]}}, {"type": "Feature", "properties": {"norad_id": 39260, "name": "FENGYUN 3C", "group": "weather", "lat": -52.365578372675365, "lon": -18.65266183779253, "alt_km": 853.428920352585, "timestamp": "2025-12-18T19:29:52.186972+00:00", "meta": {"OBJECT_NAME": "FENGYUN 3C", "OBJECT_ID": "2013-052A", "EPOCH": "2025-12-18T06:10:45.863328", "MEAN_MOTION": 14.15698078, "ECCENTRICITY": 0.00145874, "INCLINATION": 98.4768, "RA_OF_ASC_NODE": 329.6676, "ARG_OF_PERICENTER": 179.8936, "MEAN_ANOMALY": 180.2244, "EPHEMERIS_TYPE": 0, "CLASSIFICATION_TYPE": "U", "NORAD_CAT_ID": 39260, "ELEMENT_SET_NO": 999, "REV_AT_EPOCH": 63296, "BSTAR": 7.0319762e-05, "MEAN_MOTION_DOT": 9.7e-07, "MEAN_MOTION_DDOT": 0}, "tle": {"line1": "1 39260U 13052A   25352.25747527  .00000097  00000+0  70320-4 0  9998", "line2": "2 39260  98.4768 329.6676 0014587 179.8936 180.2244 14.15698078632967"}}, "geometry": {"type": "Point", "coordinates": [-18.65266183779253, -52.365578372675365]}}, {"type": "Feature", "properties": {"norad_id": 40069, "name": "METEOR-M 2", "group": "weather", "lat": 51.420907710940206, "lon": -40.627729735049996, "alt_km": 818.6765134165953, "timestamp": "2025-12-18T19:29:52.186983+00:00", "meta": {"OBJECT_NAME": "METEOR-M 2", "OBJECT_ID": "2014-037A", "EPOCH": "2025-12-18T05:44:13.698816", "MEAN_MOTION": 14.21387699, "ECCENTRICITY": 0.00052011, "INCLINATION": 98.4897, "RA_OF_ASC_NODE": 329.6129, "ARG_OF_PERICENTER": 192.4544, "MEAN_ANOMALY": 167.6507, "EPHEMERIS_TYPE": 0, "CLASSIFICATION_TYPE": "U", "NORAD_CAT_ID": 40069, "ELEMENT_SET_NO": 999, "REV_AT_EPOCH": 59361, "BSTAR": -6.5226197e-05, "MEAN_MOTION_DOT": -1.84e-06, "MEAN_MOTION_DDOT": 0}, "tle": {"line1": "1 40069U 14037A   25352.23904744 -.00000184  00000+0 -65226-4 0  9993", "line2": "2 40069  98.4897 329.6129 0005201 192.4544 167.6507 14.21387699593611"}}, "geometry": {"type": "Point", "coordinates": [-40.627729735049996, 51.420907710940206]}}, {"type": "Feature", "properties": {"norad_id": 40267, "name": "HIMAWARI-8", "group": "weather", "lat": 0.0011646813014289494, "lon": 160.78852453445901, "alt_km": 35788.48364407216, "timestamp": "2025-12-18T19:29:52.186996+00:00", "meta": {"OBJECT_NAME": "HIMAWARI-8", "OBJECT_ID": "2014-060A", "EPOCH": "2025-12-18T04:44:38.795136", "MEAN_MOTION": 1.00271988, "ECCENTRICITY": 8.576e-05, "INCLINATION": 0.0081, "RA_OF_ASC_NODE": 89.0347, "ARG_OF_PERICENTER": 203.2977, "MEAN_ANOMALY": 6.5629, "EPHEMERIS_TYPE": 0, "CLASSIFICATION_TYPE": "U", "NORAD_CAT_ID": 40267, "ELEMENT_SET_NO": 999, "REV_AT_EPOCH": 4094, "BSTAR": 0, "MEAN_MOTION_DOT": -2.5e-06, "MEAN_MOTION_DDOT": 0}, "tle": {"line1": "1 40267U 14060A   25352.19767124 -.00000250  00000+0  00000+0 0  9990", "line2": "2 40267   0.0081  89.0347 0000857 203.2977   6.5629  1.00271988 40942"}}, "geometry": {"type": "Point", "coordinates": [160.78852453445901, 0.0011646813014289494]}}, {"type": "Feature", "properties": {"norad_id": 40367, "name": "FENGYUN 2G", "group": "weather", "lat": 3.649015730509592, "lon": 119.34232628715164, "alt_km": 35799.57722968414, "timestamp": "2025-12-18T19:29:52.187008+00:00", "meta": {"OBJECT_NAME": "FENGYUN 2G", "OBJECT_ID": "2014-090A", "EPOCH": "2025-12-17T18:56:05.319744", "MEAN_MOTION": 1.00262461, "ECCENTRICITY": 0.00028119, "INCLINATION": 5.1808, "RA_OF_ASC_NODE": 75.0403, "ARG_OF_PERICENTER": 205.1147, "MEAN_ANOMALY": 189.902, "EPHEMERIS_TYPE": 0, "CLASSIFICATION_TYPE": "U", "NORAD_CAT_ID": 40367, "ELEMENT_SET_NO": 999, "REV_AT_EPOCH": 4018, "BSTAR": 0, "MEAN_MOTION_DOT": -2.79e-06, "MEAN_MOTION_DDOT": 0}, "tle": {"line1": "1 40367U 14090A   25351.78895046 -.00000279  00000+0  00000+0 0  9994", "line2": "2 40367   5.1808  75.0403 0002811 205.1147 189.9020  1.00262461 40189"}}, "geometry": {"type": "Point", "coordinates": [119.34232628715164, 3.649015730509592]}}, {"type": "Feature", "properties": {"norad_id": 40732, "name": "METEOSAT-11 (MSG-4)", "group": "weather", "lat": -1.8472959332434766, "lon": 29.376146484524874, "alt_km": 35790.70512361733, "timestamp": "2025-12-18T19:29:52.187021+00:00", "meta": {"OBJECT_NAME": "METEOSAT-11 (MSG-4)", "OBJECT_ID": "2015-034A", "EPOCH": "2025-12-18T01:21:11.445408", "MEAN_MOTION": 1.00269153, "ECCENTRICITY": 8.825e-05, "INCLINATION": 2.7492, "RA_OF_ASC_NODE": 71.989, "ARG_OF_PERICENTER": 133.6701, "MEAN_ANOMALY": 270.7845, "EPHEMERIS_TYPE": 0, "CLASSIFICATION_TYPE": "U", "NORAD_CAT_ID": 40732, "ELEMENT_SET_NO": 999, "REV_AT_EPOCH": 540, "BSTAR": 0, "MEAN_MOTION_DOT": 8.4e-07, "MEAN_MOTION_DDOT": 0}, "tle": {"line1": "1 40732U 15034A   25352.05638247  .00000084  00000+0  00000+0 0  9991", "line2": "2 40732   2.7492  71.9890 0000882 133.6701 270.7845  1.00269153  5404"}}, "geometry": {"type": "Point", "coordinates": [29.376146484524874, -1.8472959332434766]}}, {"type": "Feature", "properties": {"norad_id": 41105, "name": "ELEKTRO-L 2", "group": "weather", "lat": -5.74335623617683, "lon": 5.81570280834008, "alt_km": 35785.15697691021, "timestamp": "2025-12-18T19:29:52.187033+00:00", "meta": {"OBJECT_NAME": "ELEKTRO-L 2", "OBJECT_ID": "2015-074A", "EPOCH": "2025-12-18T01:14:27.090816", "MEAN_MOTION": 1.00272597, "ECCENTRICITY": 0.00035785, "INCLINATION": 6.2385, "RA_OF_ASC_NODE": 72.7657, "ARG_OF_PERICENTER": 208.6234, "MEAN_ANOMALY": 169.659, "EPHEMERIS_TYPE": 0, "CLASSIFICATION_TYPE": "U", "NORAD_CAT_ID": 41105, "ELEMENT_SET_NO": 999, "REV_AT_EPOCH": 3669, "BSTAR": 0, "MEAN_MOTION_DOT": -9.7e-07, "MEAN_MOTION_DDOT": 0}, "tle": {"line1": "1 41105U 15074A   25352.05170244 -.00000097  00000+0  00000+0 0  9993", "line2": "2 41105   6.2385  72.7657 0003578 208.6234 169.6590  1.00272597 36692"}}, "geometry": {"type": "Point", "coordinates": [5.81570280834008, -5.74335623617683]}}, {"type": "Feature", "properties": {"norad_id": 41752, "name": "INSAT-3DR", "group": "weather", "lat": 0.03997585240516141, "lon": 94.10723417867887, "alt_km": 35845.97880055512, "timestamp": "2025-12-18T19:29:52.187045+00:00", "meta": {"OBJECT_NAME": "INSAT-3DR", "OBJECT_ID": "2016-054A", "EPOCH": "2025-12-18T01:39:39.676608", "MEAN_MOTION": 1.00271612, "ECCENTRICITY": 0.00141408, "INCLINATION": 0.1051, "RA_OF_ASC_NODE": 86.5996, "ARG_OF_PERICENTER": 184.7803, "MEAN_ANOMALY": 274.4622, "EPHEMERIS_TYPE": 0, "CLASSIFICATION_TYPE": "U", "NORAD_CAT_ID": 41752, "ELEMENT_SET_NO": 999, "REV_AT_EPOCH": 3400, "BSTAR": 0, "MEAN_MOTION_DOT": -5.2e-07, "MEAN_MOTION_DDOT": 0}, "tle": {"line1": "1 41752U 16054A   25352.06920922 -.00000052  00000+0  00000+0 0  9998", "line2": "2 41752   0.1051  86.5996 0014140 184.7803 274.4622  1.00271612 34006"}}, "geometry": {"type": "Point", "coordinates": [94.10723417867887, 0.03997585240516141]}}]}